[Satellite]
VERSION=1.1
NAME=SAUDISAT 4
NICKNAME=SAUDISAT 4
TLE1=1 40016U 14033G   15055.31541252  .00000657  00000-0  10426-3 0  9995
TLE2=2 40016  97.9594 310.8887 0049841 122.1774 238.4278 14.74639781 36778
